{"type": "FeatureCollection", "features": [{"type": "Feature", "properties": {"name": "Colombia"}, "geometry": {"type": "MultiPolygon", "coordinates": [[[[-71.319727, 11.861914], [-71.536084, 11.774072], [-71.958105, 11.666406], [-72.248486, 11.196436], [-72.446094, 11.114258], [-72.690088, 10.83584], [-72.869336, 10.49126], [-73.006543, 9.78916], [-73.366211, 9.194141], [-73.336719, 9.16792], [-73.193164, 9.194141], [-73.058398, 9.25957], [-73.009277, 9.239941], [-72.960156, 9.135156], [-72.796387, 9.108984], [-72.66543, 8.627588], [-72.416553, 8.381982], [-72.390332, 8.287061], [-72.357617, 8.087305], [-72.446045, 7.966113], [-72.471973, 7.524268], [-72.394629, 7.415088], [-72.207715, 7.370264], [-72.084277, 7.096875], [-72.006641, 7.032617], [-71.892676, 6.990332], [-71.620898, 7.03291], [-71.128613, 6.986719], [-71.013281, 6.994434], [-70.737158, 7.090039], [-70.3875, 6.972607], [-70.129199, 6.953613], [-69.427148, 6.123975], [-69.35708, 6.147998], [-69.268164, 6.099707], [-69.089941, 6.184375], [-68.937207, 6.198193], [-68.736475, 6.156787], [-68.471777, 6.156543], [-67.938867, 6.241943], [-67.85918, 6.289893], [-67.568066, 6.241797], [-67.481982, 6.180273], [-67.439355, 6.025537], [-67.473877, 5.92998], [-67.575195, 5.833105], [-67.631348, 5.709375], [-67.642285, 5.558789], [-67.694629, 5.44751], [-67.788428, 5.375488], [-67.824902, 5.270459], [-67.804199, 5.13252], [-67.855273, 4.506885], [-67.814307, 4.455078], [-67.783203, 4.198242], [-67.661621, 3.864258], [-67.602539, 3.768799], [-67.498682, 3.691113], [-67.311133, 3.415869], [-67.353613, 3.322656], [-67.834766, 2.892822], [-67.859082, 2.793604], [-67.766455, 2.833301], [-67.618701, 2.793604], [-67.568018, 2.689941], [-67.21084, 2.390137], [-67.215234, 2.275488], [-67.113818, 2.050586], [-67.131445, 1.999854], [-66.884473, 1.358252], [-66.876025, 1.223047], [-67.082275, 1.1854], [-67.090137, 1.615576], [-67.119238, 1.703613], [-67.351953, 2.08584], [-67.400439, 2.116699], [-67.556055, 2.072998], [-67.815088, 1.790088], [-67.93623, 1.748486], [-68.032861, 1.788037], [-68.130273, 1.955762], [-68.193799, 1.987012], [-68.255957, 1.845508], [-68.176562, 1.719824], [-69.319727, 1.72124], [-69.54292, 1.773242], [-69.848584, 1.70874], [-69.852148, 1.059521], [-69.311816, 1.050488], [-69.163232, 0.864062], [-69.176758, 0.712842], [-69.15332, 0.658789], [-69.283008, 0.627246], [-69.472119, 0.729932], [-69.807129, 0.607471], [-70.053906, 0.578613], [-70.070508, -0.138867], [-69.922754, -0.31748], [-69.633984, -0.509277], [-69.592041, -0.639355], [-69.611914, -0.762793], [-69.543555, -0.917188], [-69.44873, -0.99873], [-69.449121, -1.091602], [-69.400244, -1.194922], [-69.965918, -4.235938], [-70.167529, -4.050195], [-70.240283, -3.882715], [-70.339502, -3.814355], [-70.529687, -3.866406], [-70.735107, -3.781543], [-70.074023, -2.750195], [-70.064746, -2.70166], [-70.09585, -2.658203], [-70.647998, -2.405762], [-70.705371, -2.341992], [-70.968555, -2.206836], [-71.113379, -2.24541], [-71.196387, -2.313086], [-71.396973, -2.334082], [-71.559473, -2.224219], [-71.752539, -2.152734], [-71.984277, -2.326563], [-72.053809, -2.324609], [-72.218457, -2.400488], [-72.395605, -2.428906], [-72.625342, -2.35166], [-72.81123, -2.405469], [-72.941113, -2.394043], [-72.989648, -2.339746], [-73.154492, -2.278223], [-73.172656, -2.208398], [-73.126514, -2.081055], [-73.196973, -1.830273], [-73.223975, -1.787695], [-73.349512, -1.783887], [-73.496289, -1.693066], [-73.525244, -1.638867], [-73.494336, -1.536621], [-73.521387, -1.449707], [-73.664307, -1.248828], [-73.863184, -1.19668], [-74.054395, -1.028613], [-74.246387, -0.970605], [-74.334424, -0.850879], [-74.417871, -0.580664], [-74.616357, -0.37002], [-74.755371, -0.298633], [-74.801758, -0.200098], [-74.945312, -0.188184], [-75.138379, -0.050488], [-75.224609, -0.041748], [-75.284473, -0.106543], [-75.463965, -0.038428], [-75.617334, 0.062891], [-75.77666, 0.089258], [-75.879785, 0.150977], [-76.06792, 0.345557], [-76.270605, 0.439404], [-76.311035, 0.448486], [-76.388184, 0.40498], [-76.427295, 0.26123], [-76.494629, 0.235449], [-76.729004, 0.272119], [-76.767725, 0.24165], [-76.829346, 0.247754], [-77.114111, 0.355078], [-77.396338, 0.393896], [-77.467676, 0.636523], [-77.648633, 0.723633], [-77.702881, 0.837842], [-77.829541, 0.825391], [-78.312109, 1.046094], [-78.511523, 1.198828], [-78.681641, 1.283447], [-78.859668, 1.455371], [-78.888477, 1.524072], [-79.025439, 1.623682], [-78.957666, 1.752197], [-78.792969, 1.84873], [-78.576904, 1.773779], [-78.550439, 1.923633], [-78.628613, 2.05625], [-78.591699, 2.356641], [-78.534717, 2.423682], [-78.416895, 2.483496], [-78.342871, 2.460547], [-78.296143, 2.510498], [-78.12002, 2.488184], [-78.06665, 2.509131], [-77.932275, 2.629248], [-77.874512, 2.725879], [-77.813574, 2.716357], [-77.67002, 2.878857], [-77.693652, 3.039941], [-77.559131, 3.075977], [-77.417139, 3.341797], [-77.356543, 3.348584], [-77.324414, 3.474756], [-77.076807, 3.913281], [-77.166602, 3.862256], [-77.263525, 3.893213], [-77.248389, 4.040967], [-77.278027, 4.058496], [-77.358203, 3.944727], [-77.427295, 4.060449], [-77.40874, 4.247754], [-77.520703, 4.212793], [-77.515527, 4.256299], [-77.353516, 4.398291], [-77.286328, 4.721729], [-77.339453, 4.838525], [-77.373291, 5.323975], [-77.401758, 5.416162], [-77.534424, 5.537109], [-77.324609, 5.675635], [-77.249268, 5.780176], [-77.344678, 5.995361], [-77.469434, 6.176758], [-77.473047, 6.285645], [-77.398242, 6.275], [-77.368799, 6.575586], [-77.438867, 6.690332], [-77.525977, 6.693115], [-77.803711, 7.137256], [-77.901172, 7.229346], [-77.82832, 7.442822], [-77.764697, 7.483691], [-77.743896, 7.536963], [-77.761914, 7.698828], [-77.706348, 7.691211], [-77.586572, 7.543066], [-77.538281, 7.56626], [-77.350781, 7.705859], [-77.345605, 7.836523], [-77.195996, 7.972461], [-77.407275, 8.427246], [-77.478516, 8.498437], [-77.393066, 8.644678], [-77.344141, 8.636719], [-77.261572, 8.493701], [-77.130127, 8.400586], [-76.93584, 8.146826], [-76.851855, 8.090479], [-76.912207, 8.033398], [-76.924658, 7.973193], [-76.896631, 7.939453], [-76.786572, 7.931592], [-76.742334, 8.002148], [-76.77207, 8.310547], [-76.818604, 8.464697], [-76.920459, 8.57373], [-76.887988, 8.619873], [-76.689355, 8.694727], [-76.276855, 8.989111], [-76.135498, 9.265625], [-76.027246, 9.365771], [-75.905029, 9.430908], [-75.755566, 9.415625], [-75.639355, 9.450439], [-75.603613, 9.538477], [-75.680029, 9.729785], [-75.592676, 9.992725], [-75.595898, 10.12583], [-75.538574, 10.205176], [-75.558398, 10.236426], [-75.70835, 10.143408], [-75.553711, 10.327734], [-75.445996, 10.610889], [-74.84458, 11.109717], [-74.454248, 10.989062], [-74.330225, 10.99668], [-74.492285, 10.934473], [-74.51626, 10.8625], [-74.460254, 10.787061], [-74.400879, 10.765234], [-74.350195, 10.813721], [-74.219141, 11.105322], [-74.200195, 11.265723], [-74.14292, 11.32085], [-74.059131, 11.340625], [-73.676904, 11.271484], [-73.313379, 11.295752], [-72.721826, 11.712158], [-72.275, 11.889258], [-72.165234, 12.060205], [-72.135742, 12.188574], [-72.055078, 12.238428], [-71.970117, 12.238281], [-71.919141, 12.309082], [-71.714551, 12.419971], [-71.493994, 12.432275], [-71.262109, 12.335303], [-71.155029, 12.16416], [-71.137305, 12.046338], [-71.319727, 11.861914]]], [[[-78.113721, 2.541748], [-78.14082, 2.519678], [-78.19248, 2.559277], [-78.210107, 2.60918], [-78.178418, 2.646338], [-78.137646, 2.63418], [-78.113721, 2.541748]]]]}}]}