{"type": "FeatureCollection", "features": [{"type": "Feature", "properties": {"name": "Venezuela"}, "geometry": {"type": "MultiPolygon", "coordinates": [[[[-60.821191, 9.138379], [-60.941406, 9.105566], [-60.73584, 9.20332], [-60.821191, 9.138379]]], [[[-63.849365, 11.131006], [-63.817285, 11.000342], [-63.917627, 10.887549], [-64.402344, 10.981592], [-64.213672, 11.086133], [-64.02832, 11.001855], [-63.849365, 11.131006]]], [[[-65.302344, 10.973828], [-65.266406, 10.883984], [-65.414648, 10.937891], [-65.302344, 10.973828]]], [[[-60.9979, 8.867334], [-61.069189, 8.947314], [-60.91582, 9.070312], [-60.861426, 8.949609], [-60.9979, 8.867334]]], [[[-60.017529, 8.549316], [-59.849072, 8.248682], [-60.032422, 8.053564], [-60.513623, 7.813184], [-60.718652, 7.535937], [-60.633301, 7.211084], [-60.345068, 7.15], [-60.3521, 7.002881], [-60.71792, 6.768311], [-61.145605, 6.694531], [-61.203613, 6.588379], [-61.128711, 6.214307], [-61.39082, 5.93877], [-60.671973, 5.164355], [-60.627588, 4.892529], [-61.002832, 4.535254], [-61.280078, 4.516895], [-61.554248, 4.287793], [-62.153125, 4.098389], [-62.410645, 4.156738], [-62.712109, 4.01792], [-62.7646, 3.672949], [-62.856982, 3.593457], [-62.968652, 3.593945], [-63.338672, 3.943896], [-64.021484, 3.929102], [-64.19248, 4.126855], [-64.576367, 4.139893], [-64.788672, 4.276025], [-64.668994, 4.011816], [-64.221094, 3.587402], [-64.218848, 3.204687], [-64.009033, 2.671875], [-64.046582, 2.502393], [-63.389258, 2.411914], [-63.393945, 2.22251], [-64.008496, 1.931592], [-64.205029, 1.529492], [-65.026562, 1.158447], [-65.556055, 0.687988], [-65.522998, 0.843408], [-65.644678, 0.970361], [-66.30166, 0.751953], [-66.876025, 1.223047], [-67.21084, 2.390137], [-67.618701, 2.793604], [-67.859082, 2.793604], [-67.311133, 3.415869], [-67.661621, 3.864258], [-67.855273, 4.506885], [-67.824902, 5.270459], [-67.473877, 5.92998], [-67.481982, 6.180273], [-67.85918, 6.289893], [-68.471777, 6.156543], [-69.427148, 6.123975], [-70.129199, 6.953613], [-70.737158, 7.090039], [-71.128613, 6.986719], [-72.006641, 7.032617], [-72.207715, 7.370264], [-72.471973, 7.524268], [-72.390332, 8.287061], [-72.66543, 8.627588], [-72.796387, 9.108984], [-73.058398, 9.25957], [-73.366211, 9.194141], [-73.006543, 9.78916], [-72.869336, 10.49126], [-72.690088, 10.83584], [-72.446094, 11.114258], [-72.248486, 11.196436], [-71.958105, 11.666406], [-71.319727, 11.861914], [-71.956934, 11.569922], [-71.835107, 11.190332], [-71.641602, 11.013525], [-71.730908, 10.994678], [-71.594336, 10.657373], [-72.112842, 9.815576], [-71.760742, 9.335742], [-71.686719, 9.07251], [-71.241406, 9.160449], [-71.08584, 9.348242], [-71.052686, 9.705811], [-71.494238, 10.533203], [-71.544629, 10.778711], [-71.469531, 10.96416], [-70.23252, 11.372998], [-70.097119, 11.519775], [-69.804785, 11.474219], [-69.817334, 11.67207], [-70.192578, 11.624609], [-70.286523, 11.886035], [-70.202783, 12.098389], [-70.003955, 12.177881], [-69.860107, 12.054199], [-69.631592, 11.479932], [-69.232568, 11.518457], [-68.827979, 11.431738], [-68.398633, 11.160986], [-68.27207, 10.880029], [-68.296289, 10.689355], [-68.139941, 10.492725], [-66.247217, 10.632227], [-65.851758, 10.257764], [-65.129102, 10.070068], [-64.850488, 10.098096], [-64.18833, 10.457812], [-63.731885, 10.503418], [-64.24751, 10.542578], [-64.298193, 10.635156], [-61.879492, 10.741016], [-62.37998, 10.546875], [-62.913574, 10.531494], [-62.68584, 10.289795], [-62.740576, 10.056152], [-62.550342, 10.200439], [-62.32041, 9.783057], [-62.221143, 9.882568], [-62.153369, 9.821777], [-62.155322, 9.979248], [-62.0771, 9.975049], [-61.735937, 9.631201], [-61.765918, 9.813818], [-61.588867, 9.894531], [-61.309375, 9.633057], [-61.013379, 9.556445], [-60.79248, 9.360742], [-61.023145, 9.15459], [-61.247266, 8.600342], [-61.618701, 8.597461], [-61.304004, 8.4104], [-60.800977, 8.592139], [-60.481494, 8.547266], [-60.340234, 8.62876], [-60.017529, 8.549316]]]]}}, {"type": "Feature", "properties": {"name": "Peru"}, "geometry": {"type": "Polygon", "coordinates": [[[-69.965918, -4.235938], [-70.05332, -4.333105], [-70.404639, -4.150098], [-70.799512, -4.17334], [-70.973682, -4.350488], [-71.844727, -4.504395], [-72.887061, -5.122754], [-72.979883, -5.634863], [-73.235547, -6.098438], [-73.137354, -6.46582], [-73.758105, -6.905762], [-73.804639, -7.079883], [-73.72041, -7.309277], [-73.964307, -7.378906], [-74.002051, -7.556055], [-73.72041, -7.78252], [-73.775586, -7.936426], [-73.549121, -8.345801], [-72.974023, -8.993164], [-72.970361, -9.120117], [-73.209424, -9.411426], [-72.379053, -9.510156], [-72.172852, -9.844043], [-72.181592, -10.003711], [-71.237939, -9.966016], [-70.541113, -9.4375], [-70.636914, -9.82373], [-70.642334, -11.010254], [-70.533252, -10.946875], [-70.290381, -11.064258], [-69.960352, -10.929883], [-69.578613, -10.951758], [-68.685254, -12.501953], [-68.978613, -12.880078], [-68.983447, -13.496387], [-69.074121, -13.682813], [-68.870898, -14.169727], [-69.359473, -14.795313], [-69.374707, -14.962988], [-69.172461, -15.236621], [-69.420898, -15.640625], [-69.217578, -16.149121], [-68.842773, -16.337891], [-69.03291, -16.475977], [-69.020703, -16.642188], [-69.624854, -17.200195], [-69.510937, -17.506055], [-69.8521, -17.703809], [-69.802588, -17.990234], [-69.926367, -18.206055], [-70.418262, -18.345605], [-71.336963, -17.68252], [-71.399414, -17.421973], [-71.532227, -17.294336], [-72.111279, -17.002539], [-72.467676, -16.708105], [-73.727686, -16.20166], [-75.104248, -15.411914], [-75.533643, -14.899219], [-75.933887, -14.633594], [-76.376465, -13.863086], [-76.259229, -13.802832], [-76.223633, -13.371191], [-76.832129, -12.34873], [-77.152734, -12.060352], [-77.220312, -11.663379], [-77.633203, -11.287793], [-77.736084, -10.836719], [-78.185596, -10.089063], [-78.762256, -8.616992], [-79.377246, -7.835547], [-79.617725, -7.295605], [-79.994971, -6.768945], [-81.142041, -6.056738], [-81.164307, -5.875293], [-80.930664, -5.84082], [-80.881934, -5.635059], [-81.336621, -4.669531], [-81.232031, -4.234277], [-80.798584, -3.731055], [-80.324658, -3.387891], [-80.179248, -3.877734], [-80.303271, -4.005078], [-80.490137, -4.010059], [-80.488477, -4.165527], [-80.352881, -4.208496], [-80.478564, -4.430078], [-80.383496, -4.463672], [-80.139551, -4.296094], [-79.797266, -4.476367], [-79.638525, -4.454883], [-79.330957, -4.927832], [-79.033301, -4.969141], [-78.907617, -4.714453], [-78.686035, -4.562402], [-78.679395, -4.325879], [-78.345361, -3.397363], [-78.158496, -3.465137], [-78.183301, -3.350195], [-77.860596, -2.981641], [-76.679102, -2.562598], [-76.089795, -2.133105], [-75.570557, -1.53125], [-75.408057, -0.924316], [-75.249609, -0.951855], [-75.259375, -0.590137], [-75.62627, -0.122852], [-75.340479, -0.142188], [-75.224609, -0.041748], [-74.801758, -0.200098], [-74.616357, -0.37002], [-74.246387, -0.970605], [-73.664307, -1.248828], [-73.521387, -1.449707], [-73.496289, -1.693066], [-73.196973, -1.830273], [-73.154492, -2.278223], [-72.941113, -2.394043], [-72.218457, -2.400488], [-71.752539, -2.152734], [-71.396973, -2.334082], [-70.968555, -2.206836], [-70.09585, -2.658203], [-70.074023, -2.750195], [-70.735107, -3.781543], [-70.529687, -3.866406], [-70.339502, -3.814355], [-69.965918, -4.235938]]]}}, {"type": "Feature", "properties": {"name": "Panama"}, "geometry": {"type": "MultiPolygon", "coordinates": [[[[-77.374219, 8.658301], [-77.478516, 8.498437], [-77.195996, 7.972461], [-77.538281, 7.56626], [-77.761914, 7.698828], [-77.743896, 7.536963], [-77.901172, 7.229346], [-78.170117, 7.543799], [-78.421582, 8.060986], [-78.287354, 8.091797], [-78.281201, 8.247559], [-78.141895, 8.386084], [-77.760547, 8.133252], [-78.099463, 8.496973], [-78.223047, 8.396631], [-78.399219, 8.505664], [-78.409863, 8.355322], [-78.514062, 8.628174], [-79.086377, 8.997168], [-79.50708, 8.970068], [-79.687451, 8.850977], [-79.815918, 8.639209], [-79.750439, 8.595508], [-80.458984, 8.213867], [-80.458105, 8.077051], [-80.01123, 7.500049], [-80.666699, 7.225684], [-80.901221, 7.277148], [-81.063867, 7.899756], [-81.268408, 7.625488], [-81.50415, 7.721191], [-81.727637, 8.137549], [-82.159863, 8.194824], [-82.235449, 8.311035], [-82.679541, 8.321973], [-82.866113, 8.246338], [-82.879346, 8.070654], [-83.027344, 8.337744], [-82.861621, 8.453516], [-82.917041, 8.740332], [-82.727832, 8.916064], [-82.940332, 9.060107], [-82.939844, 9.44917], [-82.801025, 9.591797], [-82.644092, 9.505859], [-82.563574, 9.57666], [-82.370801, 9.428564], [-82.339746, 9.20918], [-82.188135, 9.191748], [-82.244189, 9.031494], [-82.077881, 8.934863], [-81.780225, 8.957227], [-81.894482, 9.14043], [-81.545605, 8.827002], [-81.354785, 8.780566], [-80.838672, 8.887207], [-80.1271, 9.209912], [-79.577295, 9.597852], [-79.112256, 9.536768], [-78.082764, 9.236279], [-77.374219, 8.658301]]], [[[-78.89834, 8.274268], [-78.960596, 8.43584], [-78.883252, 8.460254], [-78.83916, 8.3479], [-78.89834, 8.274268]]], [[[-81.603271, 7.332812], [-81.852051, 7.45332], [-81.812158, 7.592383], [-81.72876, 7.621191], [-81.603271, 7.332812]]], [[[-82.259424, 9.430273], [-82.244434, 9.334082], [-82.321729, 9.418115], [-82.259424, 9.430273]]], [[[-79.06543, 8.254199], [-79.110352, 8.209814], [-79.096289, 8.29541], [-79.06543, 8.254199]]]]}}, {"type": "Feature", "properties": {"name": "Nicaragua"}, "geometry": {"type": "Polygon", "coordinates": [[[-83.15752, 14.993066], [-83.279883, 14.812793], [-83.344385, 14.9021], [-83.413721, 14.825342], [-83.299219, 14.749023], [-83.187744, 14.340088], [-83.412305, 13.996484], [-83.567334, 13.320312], [-83.510937, 12.411816], [-83.627197, 12.459326], [-83.593359, 12.713086], [-83.754248, 12.501953], [-83.65127, 12.287061], [-83.68042, 12.024316], [-83.767187, 12.059277], [-83.828906, 11.861035], [-83.70459, 11.824561], [-83.651758, 11.642041], [-83.867871, 11.300049], [-83.76792, 11.010254], [-83.641992, 10.917236], [-83.712939, 10.785889], [-84.168359, 10.780371], [-84.348291, 10.979883], [-84.701172, 11.052197], [-84.90918, 10.945312], [-85.58418, 11.189453], [-85.744336, 11.062109], [-86.468896, 11.738281], [-86.755615, 12.156641], [-87.667529, 12.903564], [-87.585059, 13.043311], [-87.389648, 12.920654], [-86.958887, 13.053711], [-86.918213, 13.223584], [-86.710693, 13.313379], [-86.733643, 13.763477], [-86.331738, 13.770068], [-86.040381, 14.050146], [-85.733936, 13.858691], [-85.179492, 14.343311], [-85.161328, 14.525146], [-84.985156, 14.752441], [-84.860449, 14.809766], [-84.453564, 14.643701], [-83.635498, 14.876416], [-83.536523, 14.977002], [-83.15752, 14.993066]]]}}, {"type": "Feature", "properties": {"name": "Ecuador"}, "geometry": {"type": "MultiPolygon", "coordinates": [[[[-75.284473, -0.106543], [-75.62627, -0.122852], [-75.259375, -0.590137], [-75.249609, -0.951855], [-75.408057, -0.924316], [-75.570557, -1.53125], [-76.089795, -2.133105], [-76.679102, -2.562598], [-77.860596, -2.981641], [-78.183301, -3.350195], [-78.158496, -3.465137], [-78.345361, -3.397363], [-78.679395, -4.325879], [-78.686035, -4.562402], [-78.907617, -4.714453], [-79.033301, -4.969141], [-79.330957, -4.927832], [-79.638525, -4.454883], [-79.797266, -4.476367], [-80.139551, -4.296094], [-80.383496, -4.463672], [-80.478564, -4.430078], [-80.352881, -4.208496], [-80.488477, -4.165527], [-80.490137, -4.010059], [-80.303271, -4.005078], [-80.179248, -3.877734], [-80.324658, -3.387891], [-79.96333, -3.157715], [-79.729883, -2.579102], [-79.842139, -2.067383], [-79.925586, -2.548535], [-80.030176, -2.556738], [-80.006641, -2.353809], [-80.284717, -2.706738], [-80.932178, -2.269141], [-80.962793, -2.189258], [-80.770361, -2.07666], [-80.760596, -1.93457], [-80.902393, -1.078906], [-80.553906, -0.847949], [-80.455469, -0.585449], [-80.282373, -0.620508], [-80.482275, -0.368262], [-80.046143, 0.155371], [-80.035937, 0.83457], [-78.899658, 1.20625], [-78.859668, 1.455371], [-78.180664, 0.968555], [-77.702881, 0.837842], [-77.467676, 0.636523], [-77.396338, 0.393896], [-76.494629, 0.235449], [-76.270605, 0.439404], [-75.77666, 0.089258], [-75.284473, -0.106543]]], [[[-80.131592, -2.973145], [-80.272949, -2.995898], [-80.223682, -2.753125], [-80.080762, -2.668848], [-79.909033, -2.725586], [-80.131592, -2.973145]]], [[[-78.909229, 1.252783], [-78.991699, 1.293213], [-78.899805, 1.359766], [-78.909229, 1.252783]]], [[[-90.334863, -0.771582], [-90.542139, -0.676465], [-90.531689, -0.581445], [-90.269385, -0.484668], [-90.192725, -0.658789], [-90.334863, -0.771582]]], [[[-89.418896, -0.911035], [-89.608594, -0.888574], [-89.287842, -0.689844], [-89.259375, -0.728418], [-89.418896, -0.911035]]], [[[-91.425977, -0.46084], [-91.610742, -0.443945], [-91.64668, -0.284473], [-91.460156, -0.255664], [-91.425977, -0.46084]]], [[[-90.37915, -1.292285], [-90.519531, -1.299121], [-90.477197, -1.220996], [-90.37915, -1.292285]]], [[[-91.361377, 0.12583], [-90.799658, -0.752051], [-90.905518, -0.940527], [-91.131055, -1.019629], [-91.419043, -0.99668], [-91.49541, -0.860938], [-91.120947, -0.559082], [-91.369189, -0.287207], [-91.428857, -0.023389], [-91.596826, 0.0021], [-91.361377, 0.12583]]], [[[-90.573926, -0.333984], [-90.809033, -0.329395], [-90.867773, -0.271387], [-90.780371, -0.160449], [-90.573926, -0.333984]]]]}}, {"type": "Feature", "properties": {"name": "Costa Rica"}, "geometry": {"type": "Polygon", "coordinates": [[[-82.563574, 9.57666], [-82.644092, 9.505859], [-82.801025, 9.591797], [-82.939844, 9.44917], [-82.940332, 9.060107], [-82.727832, 8.916064], [-82.917041, 8.740332], [-82.861621, 8.453516], [-83.027344, 8.337744], [-82.879346, 8.070654], [-83.285791, 8.664355], [-83.469727, 8.706836], [-83.291504, 8.406006], [-83.604736, 8.480322], [-83.734082, 8.614453], [-83.613721, 8.804053], [-83.736914, 9.150293], [-84.222363, 9.4625], [-84.581592, 9.568359], [-84.714941, 9.899414], [-85.025049, 10.115723], [-85.263184, 10.256641], [-85.160742, 10.017432], [-84.886426, 9.820947], [-85.114502, 9.581787], [-85.314551, 9.810937], [-85.624854, 9.902441], [-85.849658, 10.292041], [-85.667236, 10.74502], [-85.908008, 10.897559], [-85.58418, 11.189453], [-84.90918, 10.945312], [-84.701172, 11.052197], [-84.348291, 10.979883], [-84.168359, 10.780371], [-83.919287, 10.735352], [-83.712939, 10.785889], [-83.641992, 10.917236], [-83.346826, 10.315381], [-82.778418, 9.669531], [-82.563574, 9.57666]]]}}, {"type": "Feature", "properties": {"name": "Brazil"}, "geometry": {"type": "MultiPolygon", "coordinates": [[[[-66.876025, 1.223047], [-66.347119, 0.767187], [-66.060059, 0.785352], [-65.681445, 0.983447], [-65.522998, 0.843408], [-65.556055, 0.687988], [-65.473389, 0.69126], [-65.10376, 1.108105], [-64.205029, 1.529492], [-64.008496, 1.931592], [-63.43252, 2.155566], [-63.389258, 2.411914], [-64.046582, 2.502393], [-64.009033, 2.671875], [-64.218848, 3.204687], [-64.221094, 3.587402], [-64.668994, 4.011816], [-64.788672, 4.276025], [-64.576367, 4.139893], [-64.19248, 4.126855], [-64.021484, 3.929102], [-63.338672, 3.943896], [-62.968652, 3.593945], [-62.856982, 3.593457], [-62.7646, 3.672949], [-62.712109, 4.01792], [-62.410645, 4.156738], [-62.153125, 4.098389], [-61.82085, 4.197021], [-61.280078, 4.516895], [-61.002832, 4.535254], [-60.627588, 4.892529], [-60.742139, 5.202051], [-60.651367, 5.221143], [-60.142041, 5.238818], [-59.990674, 5.082861], [-60.148633, 4.533252], [-59.703271, 4.381104], [-59.738574, 4.226758], [-59.551123, 3.933545], [-59.854395, 3.5875], [-59.994336, 2.68999], [-59.889648, 2.362939], [-59.755225, 2.274121], [-59.756201, 1.900635], [-59.666602, 1.746289], [-59.231201, 1.376025], [-58.8625, 1.203613], [-58.511865, 1.284668], [-58.506055, 1.438672], [-58.340674, 1.587549], [-58.034668, 1.520264], [-57.982812, 1.648438], [-57.594434, 1.704102], [-57.366797, 1.940137], [-57.118896, 2.013965], [-56.836719, 1.88125], [-56.482812, 1.942139], [-55.96333, 1.85708], [-55.915332, 2.039551], [-56.137695, 2.259033], [-55.957471, 2.520459], [-55.730566, 2.406152], [-54.978662, 2.597656], [-54.661865, 2.327539], [-54.130078, 2.121045], [-53.767773, 2.354834], [-53.508984, 2.253125], [-53.334424, 2.339746], [-53.229785, 2.204883], [-52.964844, 2.183545], [-52.653174, 2.425732], [-52.327881, 3.181738], [-51.54707, 4.310889], [-51.461523, 4.31377], [-51.219922, 4.093604], [-50.714404, 2.134033], [-50.608691, 2.104102], [-50.458887, 1.82959], [-49.957129, 1.659863], [-49.898877, 1.162988], [-50.294434, 0.835742], [-50.755078, 0.222559], [-51.28291, -0.085205], [-51.702637, -0.762305], [-51.720605, -1.018457], [-51.921631, -1.180859], [-51.980811, -1.367969], [-52.229248, -1.3625], [-52.66416, -1.551758], [-52.19668, -1.640137], [-51.947559, -1.586719], [-50.894922, -0.937598], [-50.838184, -1.038867], [-50.917871, -1.115234], [-50.690039, -1.761719], [-50.403223, -2.015527], [-49.999219, -1.831836], [-49.719531, -1.926367], [-49.313672, -1.731738], [-49.636523, -2.656934], [-49.45752, -2.50459], [-49.211035, -1.916504], [-48.991309, -1.829785], [-48.71001, -1.487695], [-48.462939, -1.613965], [-48.349805, -1.482129], [-48.468066, -1.393848], [-48.449805, -1.145508], [-48.115088, -0.7375], [-47.557324, -0.669922], [-47.418652, -0.765918], [-47.439063, -0.647656], [-47.268604, -0.64541], [-46.81123, -0.779688], [-46.617236, -0.970605], [-46.219141, -1.03125], [-45.644775, -1.347852], [-45.458594, -1.35625], [-45.32915, -1.717285], [-45.076367, -1.466406], [-44.721143, -1.733496], [-44.778516, -1.798828], [-44.65127, -1.745801], [-44.537793, -2.052734], [-44.756348, -2.265527], [-44.662402, -2.373242], [-44.435449, -2.168066], [-44.381836, -2.365527], [-44.520117, -2.405469], [-44.589014, -2.573438], [-44.723047, -3.204785], [-44.437549, -2.944434], [-44.228613, -2.471289], [-44.105566, -2.493457], [-44.192676, -2.80957], [-43.93291, -2.583496], [-43.455127, -2.502051], [-43.380078, -2.376074], [-42.936719, -2.465039], [-42.249609, -2.791992], [-41.876172, -2.746582], [-41.479932, -2.916504], [-40.474561, -2.795605], [-39.964697, -2.861523], [-38.475781, -3.71748], [-38.048828, -4.216406], [-37.626318, -4.59209], [-37.301465, -4.713086], [-37.174658, -4.912402], [-36.590723, -5.097559], [-35.979883, -5.054395], [-35.549414, -5.129395], [-35.235449, -5.566699], [-34.805469, -7.288379], [-34.834668, -7.971484], [-34.96665, -8.407617], [-35.157764, -8.930566], [-35.59707, -9.540625], [-35.763965, -9.702539], [-35.89082, -9.687012], [-35.885449, -9.847656], [-36.39834, -10.484082], [-36.937793, -10.82041], [-37.356006, -11.403906], [-37.359229, -11.252539], [-37.688721, -12.1], [-38.239746, -12.844238], [-38.498926, -12.956641], [-38.524902, -12.762305], [-38.690967, -12.623926], [-38.851758, -12.790137], [-38.763721, -12.907227], [-39.030908, -13.365137], [-39.089355, -13.588184], [-38.988623, -13.615039], [-39.048145, -14.043945], [-39.008496, -14.101172], [-38.942334, -14.030664], [-39.05957, -14.654785], [-38.880615, -15.864258], [-39.202881, -17.178125], [-39.154004, -17.703906], [-39.650781, -18.252344], [-39.783301, -19.571777], [-40.001367, -19.741992], [-40.395947, -20.569434], [-40.789258, -20.906055], [-40.954541, -21.237891], [-41.047266, -21.505664], [-41.000293, -21.999023], [-41.705518, -22.309668], [-41.98042, -22.580664], [-41.940918, -22.788281], [-42.042383, -22.94707], [-42.958301, -22.96709], [-43.154297, -22.725195], [-43.241943, -22.795117], [-43.22417, -22.991211], [-43.898828, -23.101465], [-43.973828, -23.057324], [-43.675977, -23.009473], [-43.866162, -22.910547], [-44.637256, -23.055469], [-44.673828, -23.206641], [-44.569678, -23.274023], [-45.325391, -23.599707], [-45.464307, -23.802539], [-45.97207, -23.795508], [-46.867285, -24.236328], [-47.98916, -25.035742], [-47.90835, -25.068164], [-47.929395, -25.168262], [-48.202734, -25.416504], [-48.185937, -25.309863], [-48.40249, -25.27207], [-48.476123, -25.442969], [-48.731738, -25.36875], [-48.692187, -25.491504], [-48.401172, -25.597363], [-48.545166, -25.815918], [-48.665771, -25.844336], [-48.576318, -25.935449], [-48.619434, -26.179395], [-48.748291, -26.268652], [-48.651611, -26.406445], [-48.677734, -26.70293], [-48.55415, -27.195996], [-48.642578, -27.55791], [-48.620801, -28.075586], [-48.799658, -28.575293], [-49.271289, -28.871191], [-49.745996, -29.363184], [-50.299512, -30.425781], [-50.921387, -31.258398], [-52.039209, -32.114844], [-52.063232, -31.830371], [-51.893164, -31.867773], [-51.680664, -31.774609], [-51.272168, -31.476953], [-51.161426, -31.118848], [-50.980078, -31.094238], [-50.94082, -30.903711], [-50.689307, -30.704199], [-50.716309, -30.425977], [-50.581934, -30.438867], [-50.563525, -30.253613], [-51.024951, -30.368652], [-51.298047, -30.034863], [-51.281787, -30.244141], [-51.157275, -30.364258], [-51.283057, -30.751563], [-51.359082, -30.674512], [-51.506299, -31.104492], [-51.972461, -31.383789], [-52.193555, -31.885547], [-52.127393, -32.167773], [-52.652246, -33.137793], [-53.370605, -33.742188], [-53.531348, -33.655469], [-53.531348, -33.170898], [-53.125586, -32.736719], [-53.601709, -32.403027], [-53.761719, -32.056836], [-54.220557, -31.855176], [-54.587646, -31.485156], [-55.173535, -31.27959], [-55.603027, -30.850781], [-55.807764, -31.036719], [-56.004687, -31.079199], [-56.044824, -30.777637], [-56.832715, -30.107227], [-57.120508, -30.144434], [-57.214453, -30.283398], [-57.608887, -30.187793], [-56.938623, -29.594824], [-55.890527, -28.37002], [-55.687256, -28.381641], [-55.725488, -28.204102], [-55.101514, -27.866797], [-54.829102, -27.550586], [-54.327002, -27.423535], [-53.838184, -27.121094], [-53.717285, -26.882812], [-53.671289, -26.225098], [-53.891162, -25.668848], [-54.012305, -25.57793], [-54.615869, -25.576074], [-54.43623, -25.121289], [-54.318262, -24.128125], [-54.241797, -24.047266], [-54.625488, -23.8125], [-55.194336, -24.01748], [-55.415918, -23.951367], [-55.650732, -22.886426], [-55.617676, -22.671484], [-55.799561, -22.353906], [-56.246045, -22.264648], [-56.447803, -22.076172], [-56.633008, -22.234863], [-56.937256, -22.271289], [-57.879834, -22.135645], [-57.985693, -22.046387], [-57.830225, -20.997949], [-58.159766, -20.164648], [-57.860742, -19.97959], [-58.131494, -19.744531], [-57.716797, -19.044043], [-57.783105, -18.914258], [-57.495654, -18.214648], [-57.832471, -17.512109], [-57.990918, -17.512891], [-58.395996, -17.234277], [-58.478125, -16.700684], [-58.345605, -16.284375], [-60.175586, -16.269336], [-60.242334, -15.47959], [-60.583203, -15.09834], [-60.27334, -15.08877], [-60.506592, -13.789844], [-61.077002, -13.489746], [-61.789941, -13.525586], [-62.118018, -13.159766], [-62.765479, -12.997266], [-63.06748, -12.669141], [-63.34668, -12.680078], [-63.688574, -12.478027], [-63.938574, -12.529688], [-64.420508, -12.439746], [-64.513428, -12.250977], [-64.992529, -11.975195], [-65.090283, -11.741211], [-65.185742, -11.749512], [-65.389893, -11.246289], [-65.323779, -11.024805], [-65.447119, -10.507422], [-65.298584, -10.146777], [-65.396143, -9.712402], [-66.575342, -9.899902], [-67.416943, -10.389844], [-67.721777, -10.683105], [-68.07168, -10.703125], [-68.311133, -10.975195], [-68.622656, -11.10918], [-69.228516, -10.955664], [-69.960352, -10.929883], [-70.341992, -11.066699], [-70.533252, -10.946875], [-70.642334, -11.010254], [-70.636914, -9.82373], [-70.541113, -9.4375], [-71.237939, -9.966016], [-72.181592, -10.003711], [-72.172852, -9.844043], [-72.379053, -9.510156], [-73.209424, -9.411426], [-72.970361, -9.120117], [-72.974023, -8.993164], [-73.549121, -8.345801], [-73.775586, -7.936426], [-73.72041, -7.78252], [-74.002051, -7.556055], [-73.964307, -7.378906], [-73.72041, -7.309277], [-73.804639, -7.079883], [-73.758105, -6.905762], [-73.137354, -6.46582], [-73.235547, -6.098438], [-72.979883, -5.634863], [-72.887061, -5.122754], [-71.844727, -4.504395], [-70.973682, -4.350488], [-70.799512, -4.17334], [-70.404639, -4.150098], [-70.23916, -4.301172], [-69.972021, -4.301172], [-69.400244, -1.194922], [-69.611914, -0.762793], [-69.633984, -0.509277], [-70.070508, -0.138867], [-70.053906, 0.578613], [-69.472119, 0.729932], [-69.15332, 0.658789], [-69.163232, 0.864062], [-69.311816, 1.050488], [-69.852148, 1.059521], [-69.848584, 1.70874], [-69.54292, 1.773242], [-68.176562, 1.719824], [-68.255957, 1.845508], [-68.193799, 1.987012], [-67.93623, 1.748486], [-67.400439, 2.116699], [-67.119238, 1.703613], [-67.082275, 1.1854], [-66.876025, 1.223047]]], [[[-49.628662, -0.229199], [-49.116992, -0.163574], [-48.392676, -0.297363], [-48.570947, -0.892871], [-48.839697, -1.226562], [-48.833594, -1.390039], [-49.038477, -1.514063], [-49.172705, -1.412598], [-49.233984, -1.599512], [-49.506641, -1.511621], [-49.587891, -1.712402], [-49.805127, -1.790234], [-50.065723, -1.703809], [-50.507617, -1.787988], [-50.759766, -1.240234], [-50.729492, -1.126758], [-50.576953, -1.103125], [-50.709619, -1.077734], [-50.796094, -0.90625], [-50.645508, -0.272852], [-50.248242, -0.116406], [-49.628662, -0.229199]]], [[[-44.129297, -23.141895], [-44.320068, -23.212305], [-44.360156, -23.17207], [-44.242871, -23.074121], [-44.129297, -23.141895]]], [[[-48.584424, -26.401563], [-48.665771, -26.289648], [-48.539746, -26.170313], [-48.497607, -26.21875], [-48.584424, -26.401563]]], [[[-45.302344, -23.727539], [-45.260889, -23.941309], [-45.451416, -23.895605], [-45.302344, -23.727539]]], [[[-44.482568, -2.811914], [-44.597754, -3.037598], [-44.481445, -2.717578], [-44.482568, -2.811914]]], [[[-38.601172, -12.992578], [-38.786963, -13.055078], [-38.668115, -12.880176], [-38.601172, -12.992578]]], [[[-38.907129, -13.401074], [-38.977588, -13.523535], [-39.022168, -13.445605], [-38.907129, -13.401074]]], [[[-44.883105, -1.317871], [-44.967871, -1.39082], [-45.02085, -1.372363], [-44.978662, -1.267285], [-44.883105, -1.317871]]], [[[-50.272656, 0.231738], [-49.697266, 0.215967], [-49.91709, -0.023193], [-50.339453, 0.043359], [-50.272656, 0.231738]]], [[[-50.298975, 1.938525], [-50.456104, 1.910498], [-50.491016, 2.128613], [-50.341992, 2.141748], [-50.298975, 1.938525]]], [[[-50.652881, -0.131641], [-50.926367, -0.327344], [-51.038086, -0.225879], [-50.995068, -0.105273], [-50.842187, -0.050195], [-50.666992, -0.058008], [-50.652881, -0.131641]]], [[[-49.443896, -0.112402], [-49.708838, -0.14375], [-49.830078, -0.093896], [-49.503467, 0.083691], [-49.372314, 0.001074], [-49.443896, -0.112402]]], [[[-50.332275, 0.259033], [-50.443945, -0.007666], [-50.623926, 0.054395], [-50.372754, 0.590869], [-50.332275, 0.259033]]], [[[-50.15293, 0.393018], [-50.261328, 0.35918], [-50.281689, 0.516504], [-50.058838, 0.638037], [-50.15293, 0.393018]]], [[[-51.276318, -1.021777], [-51.938379, -1.452637], [-51.680029, -1.086133], [-51.678271, -0.855078], [-51.546045, -0.649609], [-51.254004, -0.541406], [-51.160742, -0.666699], [-51.276318, -1.021777]]], [[[-48.414893, -27.399609], [-48.55459, -27.812207], [-48.542187, -27.574805], [-48.414893, -27.399609]]]]}}]}